        "name": 'RESOURCESAT 2A',
        "norad_catalog_id": '41877',
        "tle_line1": '1 41877U 16074A   22104.19554360 -.00000776  00000-0 -33379-3 0  9997',
        "tle_line2": '2 41877  98.7209 180.2144 0002410 131.9940 228.1411 14.21619874277635',
        "epoch_iso": '2022-04-14T04:41:34.967040Z',
        "inclination_deg": '98.720900',
        "eccentricity": '0.00024100',
        "mean_motion_rev_per_day": '14.21619874',
        "altitude_m": '819879.710',
    },
    {
        "name": 'CARTOSAT 2D',
        "norad_catalog_id": '41948',
        "tle_line1": '1 41948U 17008A   22103.74828542  .00004390  00000-0  21154-3 0  9992',
        "tle_line2": '2 41948  97.4721 164.1284 0006518 185.5551 174.5587 15.19238532285971',
        "epoch_iso": '2022-04-13T17:57:31.860288Z',
        "inclination_deg": '97.472100',
        "eccentricity": '0.00065180',
        "mean_motion_rev_per_day": '15.19238532',
        "altitude_m": '508140.665',
    },
    {
        "name": 'SENTINEL 2B',
        "norad_catalog_id": '42063',
        "tle_line1": '1 42063U 17013A   22104.17250565  .00000121  00000-0  62804-4 0  9995',
        "tle_line2": '2 42063  98.5640 179.8252 0001565  85.4438 274.6936 14.30820004266577',
        "epoch_iso": '2022-04-14T04:08:24.488160Z',
        "inclination_deg": '98.564000',
        "eccentricity": '0.00015650',
        "mean_motion_rev_per_day": '14.30820004',
        "altitude_m": '788991.193',
    },
    {
        "name": 'CARTOSAT 2E',
        "norad_catalog_id": '42767',
        "tle_line1": '1 42767U 17036C   22103.91979463  .00004115  00000-0  19847-3 0  9992',
        "tle_line2": '2 42767  97.4613 165.2379 0007022 237.7586 236.3574 15.19238654266569',
        "epoch_iso": '2022-04-13T22:04:30.256032Z',
        "inclination_deg": '97.461300',
        "eccentricity": '0.00070220',
        "mean_motion_rev_per_day": '15.19238654',
        "altitude_m": '508140.297',
    },
    {
        "name": 'FORMOSAT-5',
        "norad_catalog_id": '42920',
        "tle_line1": '1 42920U 17049A   22104.09161131  .00000112  00000-0  39366-4 0  9994',
        "tle_line2": '2 42920  98.2410 182.9806 0012139  90.7290 269.5285 14.50907675245530',
        "epoch_iso": '2022-04-14T02:11:55.217184Z',
        "inclination_deg": '98.241000',
        "eccentricity": '0.00121390',
        "mean_motion_rev_per_day": '14.50907675',
        "altitude_m": '722685.488',
    },
    {
        "name": 'SENTINEL 5P',
        "norad_catalog_id": '42969',
        "tle_line1": '1 42969U 17064A   22104.12028057  .00000034  00000-0  36755-4 0  9999',
        "tle_line2": '2 42969  98.7271  44.7944 0001219  87.3837 272.7479 14.19558069233191',
        "epoch_iso": '2022-04-14T02:53:12.241248Z',
        "inclination_deg": '98.727100',
        "eccentricity": '0.00012190',
        "mean_motion_rev_per_day": '14.19558069',
        "altitude_m": '826847.755',
    },
    {
        "name": 'SKYSAT C11',
        "norad_catalog_id": '42987',
        "tle_line1": '1 42987U 17068A   22103.86683473  .00010194  00000-0  27749-3 0  9992',
        "tle_line2": '2 42987  97.2813 223.2470 0001764 127.3130 232.8276 15.37699164248462',
        "epoch_iso": '2022-04-13T20:48:14.520672Z',
        "inclination_deg": '97.281300',
        "eccentricity": '0.00017640',
        "mean_motion_rev_per_day": '15.37699164',
        "altitude_m": '452914.966',
    },
    {
        "name": 'SKYSAT C10',
        "norad_catalog_id": '42988',
        "tle_line1": '1 42988U 17068B   22103.84453774  .00009536  00000-0  25764-3 0  9993',
        "tle_line2": '2 42988  97.2861 223.3971 0003442  79.6688 280.4945 15.37948132248481',
        "epoch_iso": '2022-04-13T20:16:08.060736Z',
        "inclination_deg": '97.286100',
        "eccentricity": '0.00034420',
        "mean_motion_rev_per_day": '15.37948132',
        "altitude_m": '452177.724',
    },
    {
        "name": 'SKYSAT C9',
        "norad_catalog_id": '42989',
        "tle_line1": '1 42989U 17068C   22103.57120701  .00010920  00000-0  29387-3 0  9999',
        "tle_line2": '2 42989  97.2802 222.3374 0001312  55.9401 304.1969 15.38036723248639',
        "epoch_iso": '2022-04-13T13:42:32.285664Z',
        "inclination_deg": '97.280200',
        "eccentricity": '0.00013120',
        "mean_motion_rev_per_day": '15.38036723',
        "altitude_m": '451915.437',
    },
    {
        "name": 'SKYSAT C8',
        "norad_catalog_id": '42990',
        "tle_line1": '1 42990U 17068D   22103.87483342  .00010196  00000-0  27807-3 0  9997',
        "tle_line2": '2 42990  97.2872 223.8723 0002925 307.2539  52.8438 15.37638564248513',
        "epoch_iso": '2022-04-13T20:59:45.607488Z',
        "inclination_deg": '97.287200',
        "eccentricity": '0.00029250',
        "mean_motion_rev_per_day": '15.37638564',
        "altitude_m": '453094.444',
    },
    {
        "name": 'SKYSAT C7',
        "norad_catalog_id": '42991',
        "tle_line1": '1 42991U 17068E   22104.12163355  .00009369  00000-0  25375-3 0  9994',
        "tle_line2": '2 42991  97.2877 224.1662 0002008 101.0669 259.0802 15.37878388248551',
        "epoch_iso": '2022-04-14T02:55:09.138720Z',
        "inclination_deg": '97.287700',
        "eccentricity": '0.00020080',
        "mean_motion_rev_per_day": '15.37878388',
        "altitude_m": '452384.229',
    },
    {
        "name": 'SKYSAT C6',
        "norad_catalog_id": '42992',
        "tle_line1": '1 42992U 17068F   22103.85406397  .00009668  00000-0  26123-3 0  9994',
        "tle_line2": '2 42992  97.2894 224.2605 0002216  94.9321 265.2177 15.37943238248523',
        "epoch_iso": '2022-04-13T20:29:51.127008Z',
        "inclination_deg": '97.289400',
        "eccentricity": '0.00022160',
        "mean_motion_rev_per_day": '15.37943238',
        "altitude_m": '452192.214',
    },
    {
        "name": 'CARTOSAT 2F',
        "norad_catalog_id": '43111',
        "tle_line1": '1 43111U 18004A   22104.14441553  .00004370  00000-0  21060-3 0  9995',
        "tle_line2": '2 43111  97.4551 165.4167 0002901 259.0173 185.1144 15.19247264235782',
        "epoch_iso": '2022-04-14T03:27:57.501792Z',
        "inclination_deg": '97.455100',
        "eccentricity": '0.00029010',
        "mean_motion_rev_per_day": '15.19247264',
        "altitude_m": '508114.279',
    },
    {
        "name": 'GAOFEN-1 02',
        "norad_catalog_id": '43259',
        "tle_line1": '1 43259U 18031A   22103.93568621 -.00002239  00000-0 -31443-3 0  9990',
        "tle_line2": '2 43259  97.9017 181.9066 0003098 194.7788 165.3528 14.76503284217621',
        "epoch_iso": '2022-04-13T22:27:23.288544Z',
        "inclination_deg": '97.901700',
        "eccentricity": '0.00030980',
        "mean_motion_rev_per_day": '14.76503284',
        "altitude_m": '640383.345',
    },
    {
        "name": 'GAOFEN-1 03',
        "norad_catalog_id": '43260',
        "tle_line1": '1 43260U 18031B   22103.91409547  .00000677  00000-0  10426-3 0  9991',
        "tle_line2": '2 43260  97.9010 181.8572 0004356 287.8147  72.2574 14.76527253217616',
        "epoch_iso": '2022-04-13T21:56:17.848608Z',
        "inclination_deg": '97.901000',
        "eccentricity": '0.00043560',
        "mean_motion_rev_per_day": '14.76527253',
        "altitude_m": '640307.389',
    },
    {
        "name": 'GAOFEN-1 04',
        "norad_catalog_id": '43262',
        "tle_line1": '1 43262U 18031D   22104.22819693  .00000661  00000-0  10205-3 0  9993',
        "tle_line2": '2 43262  97.9016 182.1947 0003902 220.3474 139.8357 14.76512052217659',
        "epoch_iso": '2022-04-14T05:28:36.214752Z',
        "inclination_deg": '97.901600',
        "eccentricity": '0.00039020',
        "mean_motion_rev_per_day": '14.76512052',
        "altitude_m": '640355.559',
    },
    {
        "name": 'SENTINEL 3B',
        "norad_catalog_id": '43437',
        "tle_line1": '1 43437U 18039A   22103.79426560  .00000083  00000-0  52178-4 0  9997',
        "tle_line2": '2 43437  98.6333 171.9868 0001500  89.0961 271.0391 14.26732938206617',
        "epoch_iso": '2022-04-13T19:03:44.547840Z',
        "inclination_deg": '98.633300',
        "eccentricity": '0.00015000',
        "mean_motion_rev_per_day": '14.26732938',
        "altitude_m": '802672.127',
    },
    {
        "name": 'GAOFEN-5',
        "norad_catalog_id": '43461',
        "tle_line1": '1 43461U 18043A   22103.84180038  .00000306  00000-0  76870-4 0  9995',
        "tle_line2": '2 43461  98.2652  44.7585 0002934 115.0272 245.1232 14.57930608209240',
        "epoch_iso": '2022-04-13T20:12:11.552832Z',
        "inclination_deg": '98.265200',
        "eccentricity": '0.00029340',
        "mean_motion_rev_per_day": '14.57930608',
        "altitude_m": '699863.770',
    },
    {
        "name": 'GAOFEN-6',
        "norad_catalog_id": '43484',
        "tle_line1": '1 43484U 18048A   22104.19262209  .00000751  00000-0  11487-3 0  9991',
        "tle_line2": '2 43484  97.9297 185.6480 0010930  58.0957 302.1328 14.76560194208357',
        "epoch_iso": '2022-04-14T04:37:22.548576Z',
        "inclination_deg": '97.929700',
        "eccentricity": '0.00109300',
        "mean_motion_rev_per_day": '14.76560194',
        "altitude_m": '640203.004',
    },
    {
        "name": 'GAOFEN 11',
        "norad_catalog_id": '43585',
        "tle_line1": '1 43585U 18063A   22104.11839829  .00006165  00000-0  26047-3 0  9993',
        "tle_line2": '2 43585  97.3219 181.7819 0016437  38.7650  21.9191 15.23476694206595',
        "epoch_iso": '2022-04-14T02:50:29.612256Z',
        "inclination_deg": '97.321900',
        "eccentricity": '0.00164370',
        "mean_motion_rev_per_day": '15.23476694',
        "altitude_m": '495363.440',
    },
    {
        "name": 'ICESAT-2',
        "norad_catalog_id": '43613',
        "tle_line1": '1 43613U 18070A   22103.88980215  .00009020  00000-0  32809-3 0  9998',
        "tle_line2": '2 43613  92.0045 240.7669 0001595  49.3339 310.8049 15.28222048199518',
        "epoch_iso": '2022-04-13T21:21:18.905760Z',
